[{"OBJECT_NAME":"USA 119","OBJECT_ID":"1996-029A","EPOCH":"2026-03-09T10:00:09.129312","MEAN_MOTION":13.45886981,"ECCENTRICITY":0.0846389,"INCLINATION":63.3196,"RA_OF_ASC_NODE":93.119,"ARG_OF_PERICENTER":47.6314,"MEAN_ANOMALY":319.3281,"EPHEMERIS_TYPE":0,"CLASSIFICATION_TYPE":"U","NORAD_CAT_ID":23893,"ELEMENT_SET_NO":999,"REV_AT_EPOCH":9184,"BSTAR":0.00029025737,"MEAN_MOTION_DOT":1.64e-5,"MEAN_MOTION_DDOT":0},{"OBJECT_NAME":"THOR ABLESTAR DEB","OBJECT_ID":"1961-015W","EPOCH":"2026-03-09T16:03:33.237216","MEAN_MOTION":14.41832064,"ECCENTRICITY":0.00403328,"INCLINATION":67.5295,"RA_OF_ASC_NODE":177.3117,"ARG_OF_PERICENTER":129.1126,"MEAN_ANOMALY":231.3582,"EPHEMERIS_TYPE":0,"CLASSIFICATION_TYPE":"U","NORAD_CAT_ID":136,"ELEMENT_SET_NO":999,"REV_AT_EPOCH":34241,"BSTAR":0.00068648042,"MEAN_MOTION_DOT":2.189e-5,"MEAN_MOTION_DDOT":0}]
